2025-07-26 10:45:20,988 - __main__ - INFO - âœ… Walkeræ˜Ÿåº§åˆ›å»ºæˆåŠŸ
2025-07-26 10:45:20,988 - __main__ - INFO - ğŸ“Š Walkeræ˜Ÿåº§é…ç½®ä¿¡æ¯:
2025-07-26 10:45:20,988 - __main__ - INFO -    æ˜Ÿåº§ç±»å‹: Walker
2025-07-26 10:45:20,988 - __main__ - INFO -    è½¨é“é¢æ•°: 3
2025-07-26 10:45:20,988 - __main__ - INFO -    æ¯é¢å«æ˜Ÿæ•°: 3
2025-07-26 10:45:20,988 - __main__ - INFO -    æ€»å«æ˜Ÿæ•°: 9
2025-07-26 10:45:20,989 - __main__ - INFO -    å«æ˜Ÿåˆ—è¡¨: Satellite01, Satellite02, Satellite03, Satellite04, Satellite05, Satellite06, Satellite07, Satellite08, Satellite09
2025-07-26 10:45:20,989 - __main__ - INFO - ğŸš€ åˆ›å»ºé¦–æ‰¹å¯¼å¼¹ç›®æ ‡è¿›è¡ŒéªŒè¯...
2025-07-26 10:45:20,989 - __main__ - INFO - ğŸ“Š è®¡åˆ’åˆ›å»º 3 ä¸ªæµ‹è¯•å¯¼å¼¹ç›®æ ‡
2025-07-26 10:45:20,989 - __main__ - ERROR - âŒ åˆ›å»ºæµ‹è¯•å¯¼å¼¹ TestMissile01 å¼‚å¸¸: 'UnifiedTimeManager' object has no attribute 'get_current_simulation_time'
2025-07-26 10:45:20,989 - __main__ - ERROR - âŒ åˆ›å»ºæµ‹è¯•å¯¼å¼¹ TestMissile02 å¼‚å¸¸: 'UnifiedTimeManager' object has no attribute 'get_current_simulation_time'
2025-07-26 10:45:20,990 - __main__ - ERROR - âŒ åˆ›å»ºæµ‹è¯•å¯¼å¼¹ TestMissile03 å¼‚å¸¸: 'UnifiedTimeManager' object has no attribute 'get_current_simulation_time'
2025-07-26 10:45:20,990 - __main__ - INFO - ğŸ“Š é¦–æ‰¹å¯¼å¼¹ç›®æ ‡åˆ›å»ºå®Œæˆ: 0/3 æˆåŠŸ
2025-07-26 10:45:20,990 - __main__ - ERROR - âŒ æ‰€æœ‰æµ‹è¯•å¯¼å¼¹åˆ›å»ºå¤±è´¥ï¼Œå¯¼å¼¹é…ç½®æ–¹æ³•éœ€è¦ä¿®å¤
2025-07-26 10:45:20,990 - __main__ - ERROR - âŒ é¦–æ‰¹å¯¼å¼¹ç›®æ ‡åˆ›å»ºå¤±è´¥ï¼Œç¨‹åºé€€å‡º
2025-07-26 10:45:20,990 - __main__ - INFO - ğŸ§¹ æ¸…ç†ç³»ç»Ÿèµ„æº...
2025-07-26 10:45:22,166 - src.stk_interface.stk_manager - INFO - STKè¿æ¥å·²æ–­å¼€
2025-07-26 10:45:22,167 - __main__ - INFO - âœ… èµ„æºæ¸…ç†å®Œæˆ
2025-07-26 10:45:22,167 - __main__ - ERROR - âŒ æ•°æ®é‡‡é›†ç³»ç»Ÿè¿è¡Œå¤±è´¥
2025-07-26 10:45:22,167 - __main__ - INFO - ============================================================
2025-07-26 10:45:22,167 - __main__ - INFO - ğŸ STKå«æ˜Ÿæ˜Ÿåº§æ•°æ®é‡‡é›†ç³»ç»Ÿç»“æŸ
2025-07-26 10:45:22,167 - __main__ - INFO - ============================================================
2025-07-26 10:46:22,043 - comtypes.client._code_cache - INFO - Imported existing <module 'comtypes.gen' from 'D:\\software\\miniconda3\\Lib\\site-packages\\comtypes\\gen\\__init__.py'>
2025-07-26 10:46:22,043 - comtypes.client._code_cache - INFO - Using writeable comtypes cache directory: 'D:\software\miniconda3\Lib\site-packages\comtypes\gen'
2025-07-26 10:46:22,104 - __main__ - INFO - ============================================================
2025-07-26 10:46:22,104 - __main__ - INFO - ğŸš€ STKå«æ˜Ÿæ˜Ÿåº§æ•°æ®é‡‡é›†ç³»ç»Ÿå¯åŠ¨
2025-07-26 10:46:22,105 - __main__ - INFO - ============================================================
2025-07-26 10:46:22,105 - __main__ - INFO - ğŸš€ STKæ•°æ®é‡‡é›†ç³»ç»Ÿå¯åŠ¨...
2025-07-26 10:46:22,109 - src.utils.config_manager - INFO - âœ… é…ç½®æ–‡ä»¶åŠ è½½æˆåŠŸ: config/config.yaml
2025-07-26 10:46:22,111 - src.utils.time_manager - INFO - ğŸ• æ—¶é—´ç®¡ç†å™¨åˆå§‹åŒ–å®Œæˆ:
2025-07-26 10:46:22,111 - src.utils.time_manager - INFO -    ä»¿çœŸæ—¶é—´èŒƒå›´: 2025-07-26 04:00:00 - 2025-07-26 08:00:00
2025-07-26 10:46:22,112 - src.utils.time_manager - INFO -    å†å…ƒæ—¶é—´: 2025-07-26 04:00:00
2025-07-26 10:46:22,112 - src.utils.time_manager - INFO -    æ•°æ®é‡‡é›†é—´éš”: [60, 300]ç§’
2025-07-26 10:46:22,112 - src.utils.time_manager - INFO -    ä¿å­˜é¢‘ç‡: æ¯10æ¬¡é‡‡é›†ä¿å­˜ä¸€æ¬¡
2025-07-26 10:46:22,112 - src.utils.time_manager - INFO -    å¯¼å¼¹å‘å°„é—´éš”: [300, 1800]ç§’
2025-07-26 10:46:22,112 - src.utils.time_manager - INFO - ğŸ• æ—¶é—´ç®¡ç†å™¨åˆå§‹åŒ–å®Œæˆ:
2025-07-26 10:46:22,112 - src.utils.time_manager - INFO -    ä»¿çœŸæ—¶é—´èŒƒå›´: 2025-07-26 04:00:00 - 2025-07-26 08:00:00
2025-07-26 10:46:22,113 - src.utils.time_manager - INFO -    å†å…ƒæ—¶é—´: 2025-07-26 04:00:00
2025-07-26 10:46:22,113 - src.utils.time_manager - INFO -    æ•°æ®é‡‡é›†é—´éš”: [60, 300]ç§’
2025-07-26 10:46:22,113 - src.utils.time_manager - INFO -    ä¿å­˜é¢‘ç‡: æ¯10æ¬¡é‡‡é›†ä¿å­˜ä¸€æ¬¡
2025-07-26 10:46:22,113 - src.utils.time_manager - INFO -    å¯¼å¼¹å‘å°„é—´éš”: [300, 1800]ç§’
2025-07-26 10:46:22,113 - __main__ - INFO - âœ… STKæ•°æ®é‡‡é›†ç³»ç»Ÿåˆå§‹åŒ–å®Œæˆ
2025-07-26 10:46:22,113 - __main__ - INFO - ğŸ¯ å¼€å§‹æ‰§è¡Œæ•°æ®é‡‡é›†æµç¨‹...
2025-07-26 10:46:22,113 - __main__ - INFO - ğŸ”— è¿æ¥STK...
2025-07-26 10:46:25,186 - src.stk_interface.stk_manager - INFO - åˆ›å»ºæ–°çš„STKå®ä¾‹
2025-07-26 10:46:25,223 - src.stk_interface.stk_manager - INFO - ğŸ†• æ²¡æœ‰æ£€æµ‹åˆ°ç°æœ‰åœºæ™¯
2025-07-26 10:46:25,223 - src.stk_interface.stk_manager - INFO - ğŸ†• æœªæ£€æµ‹åˆ°ç°æœ‰é¡¹ç›®ï¼Œå°†åˆ›å»ºæ–°çš„åœºæ™¯å’Œå¯¹è±¡
2025-07-26 10:46:25,224 - src.stk_interface.stk_manager - INFO - å…³é—­ç°æœ‰åœºæ™¯
2025-07-26 10:46:32,323 - src.stk_interface.stk_manager - INFO - åˆ›å»ºæ–°åœºæ™¯: MCP_Created_Scenario
2025-07-26 10:46:32,323 - src.stk_interface.stk_manager - INFO - ğŸ• ç»Ÿä¸€æ—¶é—´ç®¡ç†å™¨é…ç½®:
2025-07-26 10:46:32,324 - src.stk_interface.stk_manager - INFO -    å¼€å§‹æ—¶é—´: 26 Jul 2025 04:00:00.000
2025-07-26 10:46:32,324 - src.stk_interface.stk_manager - INFO -    ç»“æŸæ—¶é—´: 26 Jul 2025 08:00:00.000
2025-07-26 10:46:32,324 - src.stk_interface.stk_manager - INFO -    å†å…ƒæ—¶é—´: 26 Jul 2025 04:00:00.000
2025-07-26 10:46:32,540 - src.stk_interface.stk_manager - INFO - âœ… STKåœºæ™¯ä»¿çœŸæ—¶é—´å·²è®¾ç½®: 26 Jul 2025 04:00:00.000 - 26 Jul 2025 08:00:00.000
2025-07-26 10:46:32,542 - src.stk_interface.stk_manager - INFO - STKè¿æ¥æˆåŠŸ
2025-07-26 10:46:32,542 - __main__ - INFO - âœ… STKè¿æ¥æˆåŠŸ
2025-07-26 10:46:32,542 - __main__ - INFO - ğŸ”§ åˆå§‹åŒ–ç³»ç»Ÿç»„ä»¶...
2025-07-26 10:46:32,543 - src.stk_interface.missile_manager - INFO - å¯¼å¼¹ç®¡ç†å™¨åˆå§‹åŒ–å®Œæˆï¼Œä¸­æ®µé«˜åº¦é˜ˆå€¼: 100km
2025-07-26 10:46:32,543 - src.stk_interface.visibility_calculator - INFO - ğŸ” å¯è§æ€§è®¡ç®—å™¨åˆå§‹åŒ–
2025-07-26 10:46:32,544 - src.constellation.constellation_manager - INFO - ğŸŒŸ æ˜Ÿåº§ç®¡ç†å™¨åˆå§‹åŒ–å®Œæˆ
2025-07-26 10:46:32,545 - src.data_collection.data_collector - INFO - ğŸ“Š æ•°æ®é‡‡é›†å™¨åˆå§‹åŒ–å®Œæˆ
2025-07-26 10:46:32,545 - __main__ - INFO - âœ… ç³»ç»Ÿç»„ä»¶åˆå§‹åŒ–å®Œæˆ
2025-07-26 10:46:32,546 - __main__ - INFO - ğŸŒŸ è®¾ç½®Walkeræ˜Ÿåº§...
2025-07-26 10:46:32,546 - src.constellation.constellation_manager - INFO - âœ… æ˜Ÿåº§å‚æ•°éªŒè¯é€šè¿‡
2025-07-26 10:46:32,547 - src.constellation.constellation_manager - INFO - ğŸŒŸ å¼€å§‹åˆ›å»ºWalkeræ˜Ÿåº§...
2025-07-26 10:46:32,547 - src.constellation.constellation_manager - INFO - ğŸ“Š æ˜Ÿåº§é…ç½®: Walker, 3ä¸ªè½¨é“é¢, æ¯é¢3é¢—å«æ˜Ÿ
2025-07-26 10:46:32,704 - src.stk_interface.stk_manager - INFO - ä½¿ç”¨COMæ¥å£åˆ›å»ºå«æ˜Ÿ: Satellite01
2025-07-26 10:46:34,705 - src.stk_interface.stk_manager - INFO - åœºæ™¯Childrenå¯¹è±¡åˆ—è¡¨:
2025-07-26 10:46:34,761 - src.stk_interface.stk_manager - INFO - Child 0: ClassName=Satellite, InstanceName=Satellite01, Name=None
2025-07-26 10:46:34,806 - src.stk_interface.stk_manager - INFO - è½¨é“ä¼ æ’­å™¨ç±»å‹è®¾ç½®æˆåŠŸ
2025-07-26 10:46:34,808 - src.stk_interface.stk_manager - INFO - å¼€å§‹è®¾ç½®å«æ˜Ÿè½¨é“å‚æ•°...
2025-07-26 10:46:34,809 - src.stk_interface.stk_manager - INFO - æ¥æ”¶åˆ°çš„è½¨é“å‚æ•°: {'semi_axis': 8171.0, 'eccentricity': 0.0, 'inclination': 51.856, 'raan': 24.0, 'arg_of_perigee': 12, 'mean_anomaly': 180.0}
2025-07-26 10:46:34,809 - src.stk_interface.stk_manager - INFO - å‚æ•° semi_axis = 8171.0 km åœ¨åˆç†èŒƒå›´å†…
2025-07-26 10:46:34,810 - src.stk_interface.stk_manager - INFO - å‚æ•° eccentricity = 0.0 æ— é‡çº² åœ¨åˆç†èŒƒå›´å†…
2025-07-26 10:46:34,810 - src.stk_interface.stk_manager - INFO - å‚æ•° inclination = 51.856 åº¦ åœ¨åˆç†èŒƒå›´å†…
2025-07-26 10:46:34,810 - src.stk_interface.stk_manager - INFO - å‚æ•° raan = 24.0 åº¦ åœ¨åˆç†èŒƒå›´å†…
2025-07-26 10:46:34,811 - src.stk_interface.stk_manager - INFO - å‚æ•° arg_of_perigee = 12 åº¦ åœ¨åˆç†èŒƒå›´å†…
2025-07-26 10:46:34,811 - src.stk_interface.stk_manager - INFO - å‚æ•° mean_anomaly = 180.0 åº¦ åœ¨åˆç†èŒƒå›´å†…
2025-07-26 10:46:34,812 - src.stk_interface.stk_manager - INFO - ğŸ”„ ä½¿ç”¨ä¼˜åŒ–çš„COMæ¥å£è®¾ç½®è½¨é“å‚æ•°...
2025-07-26 10:46:34,813 - src.stk_interface.stk_manager - INFO - å°è¯•ä½¿ç”¨Keplerianè½¨é“è¡¨ç¤ºæ³•...
2025-07-26 10:46:35,061 - src.stk_interface.stk_manager - INFO - âœ… Keplerianè½¨é“å‚æ•°è®¾ç½®æˆåŠŸ
2025-07-26 10:46:35,061 - src.stk_interface.stk_manager - INFO - âœ… ä¼ æ’­å™¨ç±»å‹è®¾ç½®ä¸ºJ2æ‘„åŠ¨
2025-07-26 10:46:35,174 - src.stk_interface.stk_manager - INFO - âœ… è½¨é“ä¼ æ’­å®Œæˆ
2025-07-26 10:46:35,174 - src.stk_interface.stk_manager - INFO - âœ… è½¨é“å‚æ•°è®¾ç½®æˆåŠŸï¼Œå«æ˜Ÿè½¨é“å·²æ›´æ–°
2025-07-26 10:46:35,266 - src.stk_interface.stk_manager - INFO - å«æ˜Ÿ Satellite01 åˆ›å»ºæˆåŠŸ
2025-07-26 10:46:35,431 - src.stk_interface.stk_manager - INFO - ä½¿ç”¨COMæ¥å£åˆ›å»ºè½½è·: Satellite01_Payload
2025-07-26 10:46:36,432 - src.stk_interface.stk_manager - INFO - =============== å¼€å§‹è¯¦ç»†é…ç½®è½½è·å‚æ•° ===============
2025-07-26 10:46:36,433 - src.stk_interface.stk_manager - INFO - æ¥æ”¶åˆ°çš„è½½è·å‚æ•°: {'type': 'Optical_Sensor', 'mounting': 'Nadir', 'sensor_pattern': 'Conic', 'inner_cone_half_angle': 66.1, 'outer_cone_half_angle': 85.0, 'clockwise_angle_min': 0.0, 'clockwise_angle_max': 360.0, 'pointing': {'azimuth': 0.0, 'elevation': 90.0}, 'constraints_range': {'min_range': 0, 'max_range': 5000, 'active': True}}
2025-07-26 10:46:36,435 - src.stk_interface.stk_manager - INFO - ğŸ”„ å¼€å§‹è®¾ç½®ä¼ æ„Ÿå™¨åœ†é”¥è§†åœºå‚æ•°...
2025-07-26 10:46:36,466 - src.stk_interface.stk_manager - INFO - âœ“ ä½¿ç”¨SetPatternType(0)è®¾ç½®ä¼ æ„Ÿå™¨æ¨¡å¼ä¸ºé”¥å½¢æˆåŠŸ
2025-07-26 10:46:36,766 - src.stk_interface.stk_manager - INFO - âœ“ ä½¿ç”¨éªŒè¯æˆåŠŸçš„æ–¹æ³•è®¾ç½®é”¥å½¢å‚æ•°æˆåŠŸ: å†…é”¥è§’66.1Â°, å¤–é”¥è§’85.0Â°
2025-07-26 10:46:36,839 - src.stk_interface.stk_manager - INFO - âœ“ ä½¿ç”¨STKå®˜æ–¹æ–¹æ³•è®¾ç½®æŒ‡å‘å‚æ•°æˆåŠŸ: æ–¹ä½è§’0.0Â°, ä¿¯ä»°è§’90.0Â°
2025-07-26 10:46:36,841 - src.stk_interface.stk_manager - INFO - =============== å¼€å§‹é…ç½®ä¼ æ„Ÿå™¨çº¦æŸ ===============
